[{"OBJECT_NAME":"ION SCV-017","OBJECT_ID":"2025-052W","EPOCH":"2026-03-09T17:11:44.577024","MEAN_MOTION":15.26881798,"ECCENTRICITY":0.0023746,"INCLINATION":97.4016,"RA_OF_ASC_NODE":324.7516,"ARG_OF_PERICENTER":44.9875,"MEAN_ANOMALY":315.3282,"EPHEMERIS_TYPE":0,"CLASSIFICATION_TYPE":"U","NORAD_CAT_ID":63230,"ELEMENT_SET_NO":999,"REV_AT_EPOCH":5485,"BSTAR":0.00024539061,"MEAN_MOTION_DOT":6.457e-5,"MEAN_MOTION_DDOT":0},{"OBJECT_NAME":"STARLINK-35760","OBJECT_ID":"2025-247K","EPOCH":"2026-03-09T21:40:52.035456","MEAN_MOTION":15.30199957,"ECCENTRICITY":0.00015725,"INCLINATION":53.1588,"RA_OF_ASC_NODE":190.6444,"ARG_OF_PERICENTER":59.2323,"MEAN_ANOMALY":300.8832,"EPHEMERIS_TYPE":0,"CLASSIFICATION_TYPE":"U","NORAD_CAT_ID":66274,"ELEMENT_SET_NO":999,"REV_AT_EPOCH":2106,"BSTAR":0.00094874952,"MEAN_MOTION_DOT":0.00027845,"MEAN_MOTION_DDOT":0}]
